{
  "norad_id": 46383,
  "name": "STARLINK-1770",
  "history": [
    {
      "epoch": "2026-03-28T18:09:44.661888Z",
      "apogee_km": 371.08353791780064,
      "perigee_km": 364.8598478820795,
      "latitude_deg": -2.472776065303519e-06,
      "longitude_deg": 123.42186756620548,
      "height_km": 366.05425496324375,
      "semi_major_axis_km": 6746.10869289994,
      "eccentricity": 0.00046128,
      "inclination_deg": 53.04,
      "raan_deg": 222.0306,
      "arg_perigee_deg": 335.0048,
      "mean_anomaly_deg": 25.0743,
      "mean_motion_rev_day": 15.66833183
    }
  ]
}